STARLINK-30437          
1 58036U 23156J   26068.26676835 -.00000628  00000+0 -90727-5 0  9991
2 58036  53.1603  80.1618 0001127  92.6776 267.4354 15.30194159136205
TEVEL2-6                
1 63215U 25052F   26068.64958975  .00021046  00000+0  70909-3 0  9996
2 63215  97.4016 325.0381 0004769  95.6604 264.5181 15.30760889 54861
